CCSDS_OMM_VERS = 2.0
CREATION_DATE  = 
ORIGINATOR     = 

OBJECT_NAME    = STARLINK-35969
OBJECT_ID      = 2025-265H
CENTER_NAME    = EARTH
REF_FRAME      = TEME
TIME_SYSTEM    = UTC
MEAN_ELEMENT_THEORY = SGP/SGP4

EPOCH          = 2025-12-03T06:00:02.999808
MEAN_MOTION    = 15.75024907
ECCENTRICITY   = .00016644
INCLINATION    = 42.9998
RA_OF_ASC_NODE = 110.3173
ARG_OF_PERICENTER = 264.8404
MEAN_ANOMALY   = 149.8176

EPHEMERIS_TYPE = 0
CLASSIFICATION_TYPE = U
NORAD_CAT_ID   = 66523
ELEMENT_SET_NO = 999
REV_AT_EPOCH   = 347
BSTAR          = .29975036E-3
MEAN_MOTION_DOT = .45789E-3
MEAN_MOTION_DDOT = 0

CCSDS_OMM_VERS = 2.0
CREATION_DATE  = 
ORIGINATOR     = 

OBJECT_NAME    = STARLINK-35687
OBJECT_ID      = 2025-265J
CENTER_NAME    = EARTH
REF_FRAME      = TEME
TIME_SYSTEM    = UTC
MEAN_ELEMENT_THEORY = SGP/SGP4

EPOCH          = 2025-12-03T06:00:02.999808
MEAN_MOTION    = 15.75032995
ECCENTRICITY   = .00017285
INCLINATION    = 42.9997
RA_OF_ASC_NODE = 110.3122
ARG_OF_PERICENTER = 254.9046
MEAN_ANOMALY   = 161.6686

EPHEMERIS_TYPE = 0
CLASSIFICATION_TYPE = U
NORAD_CAT_ID   = 66524
ELEMENT_SET_NO = 999
REV_AT_EPOCH   = 347
BSTAR          = .21928153E-3
MEAN_MOTION_DOT = .3333E-3
MEAN_MOTION_DDOT = 0

CCSDS_OMM_VERS = 2.0
CREATION_DATE  = 
ORIGINATOR     = 

OBJECT_NAME    = STARLINK-35975
OBJECT_ID      = 2025-265K
CENTER_NAME    = EARTH
REF_FRAME      = TEME
TIME_SYSTEM    = UTC
MEAN_ELEMENT_THEORY = SGP/SGP4

EPOCH          = 2025-12-03T06:00:02.999808
MEAN_MOTION    = 15.75033513
ECCENTRICITY   = .00017813
INCLINATION    = 42.9996
RA_OF_ASC_NODE = 110.3076
ARG_OF_PERICENTER = 254.0038
MEAN_ANOMALY   = 164.4853

EPHEMERIS_TYPE = 0
CLASSIFICATION_TYPE = U
NORAD_CAT_ID   = 66525
ELEMENT_SET_NO = 999
REV_AT_EPOCH   = 347
BSTAR          = .22204297E-3
MEAN_MOTION_DOT = .33759E-3
MEAN_MOTION_DDOT = 0

CCSDS_OMM_VERS = 2.0
CREATION_DATE  = 
ORIGINATOR     = 

OBJECT_NAME    = STARLINK-35932
OBJECT_ID      = 2025-265L
CENTER_NAME    = EARTH
REF_FRAME      = TEME
TIME_SYSTEM    = UTC
MEAN_ELEMENT_THEORY = SGP/SGP4

EPOCH          = 2025-12-03T06:00:02.999808
MEAN_MOTION    = 15.74893820
ECCENTRICITY   = .00022615
INCLINATION    = 42.9996
RA_OF_ASC_NODE = 110.3029
ARG_OF_PERICENTER = 275.8118
MEAN_ANOMALY   = 144.5221

EPHEMERIS_TYPE = 0
CLASSIFICATION_TYPE = U
NORAD_CAT_ID   = 66526
ELEMENT_SET_NO = 999
REV_AT_EPOCH   = 336
BSTAR          = .20275777E-2
MEAN_MOTION_DOT = .321093E-2
MEAN_MOTION_DDOT = 0

CCSDS_OMM_VERS = 2.0
CREATION_DATE  = 
ORIGINATOR     = 

OBJECT_NAME    = STARLINK-35935
OBJECT_ID      = 2025-265M
CENTER_NAME    = EARTH
REF_FRAME      = TEME
TIME_SYSTEM    = UTC
MEAN_ELEMENT_THEORY = SGP/SGP4

EPOCH          = 2025-12-03T06:00:02.999808
MEAN_MOTION    = 15.74967034
ECCENTRICITY   = .00012436
INCLINATION    = 42.9996
RA_OF_ASC_NODE = 110.2985
ARG_OF_PERICENTER = 267.3668
MEAN_ANOMALY   = 154.9710

EPHEMERIS_TYPE = 0
CLASSIFICATION_TYPE = U
NORAD_CAT_ID   = 66527
ELEMENT_SET_NO = 999
REV_AT_EPOCH   = 347
BSTAR          = -.37742493E-3
MEAN_MOTION_DOT = -.57873E-3
MEAN_MOTION_DDOT = 0

CCSDS_OMM_VERS = 2.0
CREATION_DATE  = 
ORIGINATOR     = 

OBJECT_NAME    = STARLINK-35928
OBJECT_ID      = 2025-265N
CENTER_NAME    = EARTH
REF_FRAME      = TEME
TIME_SYSTEM    = UTC
MEAN_ELEMENT_THEORY = SGP/SGP4

EPOCH          = 2025-12-03T06:00:02.999808
MEAN_MOTION    = 15.75049277
ECCENTRICITY   = .00016074
INCLINATION    = 42.9997
RA_OF_ASC_NODE = 110.2935
ARG_OF_PERICENTER = 269.3553
MEAN_ANOMALY   = 154.7811

EPHEMERIS_TYPE = 0
CLASSIFICATION_TYPE = U
NORAD_CAT_ID   = 66528
ELEMENT_SET_NO = 999
REV_AT_EPOCH   = 347
BSTAR          = .35637948E-3
MEAN_MOTION_DOT = .54645E-3
MEAN_MOTION_DDOT = 0

CCSDS_OMM_VERS = 2.0
CREATION_DATE  = 
ORIGINATOR     = 

OBJECT_NAME    = STARLINK-35933
OBJECT_ID      = 2025-265P
CENTER_NAME    = EARTH
REF_FRAME      = TEME
TIME_SYSTEM    = UTC
MEAN_ELEMENT_THEORY = SGP/SGP4

EPOCH          = 2025-12-03T06:00:02.999808
MEAN_MOTION    = 15.74936659
ECCENTRICITY   = .00018841
INCLINATION    = 42.9997
RA_OF_ASC_NODE = 110.2879
ARG_OF_PERICENTER = 275.4707
MEAN_ANOMALY   = 150.7998

EPHEMERIS_TYPE = 0
CLASSIFICATION_TYPE = U
NORAD_CAT_ID   = 66529
ELEMENT_SET_NO = 999
REV_AT_EPOCH   = 347
BSTAR          = .64549576E-3
MEAN_MOTION_DOT = .99407E-3
MEAN_MOTION_DDOT = 0

CCSDS_OMM_VERS = 2.0
CREATION_DATE  = 
ORIGINATOR     = 

OBJECT_NAME    = STARLINK-35961
OBJECT_ID      = 2025-265Q
CENTER_NAME    = EARTH
REF_FRAME      = TEME
TIME_SYSTEM    = UTC
MEAN_ELEMENT_THEORY = SGP/SGP4

EPOCH          = 2025-12-03T06:00:02.999808
MEAN_MOTION    = 15.75045803
ECCENTRICITY   = .00017165
INCLINATION    = 42.9997
RA_OF_ASC_NODE = 110.2836
ARG_OF_PERICENTER = 265.5083
MEAN_ANOMALY   = 162.5648

EPHEMERIS_TYPE = 0
CLASSIFICATION_TYPE = U
NORAD_CAT_ID   = 66530
ELEMENT_SET_NO = 999
REV_AT_EPOCH   = 347
BSTAR          = -.2436956E-4
MEAN_MOTION_DOT = -.422E-4
MEAN_MOTION_DDOT = 0

CCSDS_OMM_VERS = 2.0
CREATION_DATE  = 
ORIGINATOR     = 

OBJECT_NAME    = STARLINK-35960
OBJECT_ID      = 2025-265R
CENTER_NAME    = EARTH
REF_FRAME      = TEME
TIME_SYSTEM    = UTC
MEAN_ELEMENT_THEORY = SGP/SGP4

EPOCH          = 2025-12-03T06:00:02.999808
MEAN_MOTION    = 15.75033302
ECCENTRICITY   = .00016944
INCLINATION    = 42.9998
RA_OF_ASC_NODE = 110.2785
ARG_OF_PERICENTER = 257.1118
MEAN_ANOMALY   = 172.8766

EPHEMERIS_TYPE = 0
CLASSIFICATION_TYPE = U
NORAD_CAT_ID   = 66531
ELEMENT_SET_NO = 999
REV_AT_EPOCH   = 347
BSTAR          = .21622261E-3
MEAN_MOTION_DOT = .32857E-3
MEAN_MOTION_DDOT = 0

CCSDS_OMM_VERS = 2.0
CREATION_DATE  = 
ORIGINATOR     = 

OBJECT_NAME    = STARLINK-35914
OBJECT_ID      = 2025-265S
CENTER_NAME    = EARTH
REF_FRAME      = TEME
TIME_SYSTEM    = UTC
MEAN_ELEMENT_THEORY = SGP/SGP4

EPOCH          = 2025-12-03T06:00:02.999808
MEAN_MOTION    = 15.75041077
ECCENTRICITY   = .00018102
INCLINATION    = 42.9995
RA_OF_ASC_NODE = 110.2740
ARG_OF_PERICENTER = 259.4482
MEAN_ANOMALY   = 172.4575

EPHEMERIS_TYPE = 0
CLASSIFICATION_TYPE = U
NORAD_CAT_ID   = 66532
ELEMENT_SET_NO = 999
REV_AT_EPOCH   = 347
BSTAR          = .12535875E-3
MEAN_MOTION_DOT = .18823E-3
MEAN_MOTION_DDOT = 0

CCSDS_OMM_VERS = 2.0
CREATION_DATE  = 
ORIGINATOR     = 

OBJECT_NAME    = STARLINK-35707
OBJECT_ID      = 2025-265T
CENTER_NAME    = EARTH
REF_FRAME      = TEME
TIME_SYSTEM    = UTC
MEAN_ELEMENT_THEORY = SGP/SGP4

EPOCH          = 2025-12-03T06:00:02.999808
MEAN_MOTION    = 15.75051017
ECCENTRICITY   = .00016735
INCLINATION    = 42.9996
RA_OF_ASC_NODE = 110.2693
ARG_OF_PERICENTER = 270.7205
MEAN_ANOMALY   = 163.1002

EPHEMERIS_TYPE = 0
CLASSIFICATION_TYPE = U
NORAD_CAT_ID   = 66533
ELEMENT_SET_NO = 999
REV_AT_EPOCH   = 347
BSTAR          = -.11065025E-3
MEAN_MOTION_DOT = -.17448E-3
MEAN_MOTION_DDOT = 0

CCSDS_OMM_VERS = 2.0
CREATION_DATE  = 
ORIGINATOR     = 

OBJECT_NAME    = STARLINK-35976
OBJECT_ID      = 2025-265U
CENTER_NAME    = EARTH
REF_FRAME      = TEME
TIME_SYSTEM    = UTC
MEAN_ELEMENT_THEORY = SGP/SGP4

EPOCH          = 2025-12-03T06:00:02.999808
MEAN_MOTION    = 15.75041277
ECCENTRICITY   = .00018671
INCLINATION    = 42.9999
RA_OF_ASC_NODE = 110.2648
ARG_OF_PERICENTER = 248.2600
MEAN_ANOMALY   = 187.4825

EPHEMERIS_TYPE = 0
CLASSIFICATION_TYPE = U
NORAD_CAT_ID   = 66534
ELEMENT_SET_NO = 999
REV_AT_EPOCH   = 347
BSTAR          = .13856686E-3
MEAN_MOTION_DOT = .20862E-3
MEAN_MOTION_DDOT = 0

