STARLINK-35969          
1 66523U 25265H   25337.25003472  .00045789  00000+0  29975-3 0  9992
2 66523  42.9998 110.3173 0001664 264.8404 149.8176 15.75024907  3476
STARLINK-35687          
1 66524U 25265J   25337.25003472  .00033330  00000+0  21928-3 0  9992
2 66524  42.9997 110.3122 0001728 254.9046 161.6686 15.75032995  3477
STARLINK-35975          
1 66525U 25265K   25337.25003472  .00033759  00000+0  22204-3 0  9996
2 66525  42.9996 110.3076 0001781 254.0038 164.4853 15.75033513  3470
STARLINK-35932          
1 66526U 25265L   25337.25003472  .00321093  00000+0  20276-2 0  9994
2 66526  42.9996 110.3029 0002261 275.8118 144.5221 15.74893820  3363
STARLINK-35935          
1 66527U 25265M   25337.25003472 -.00057873  00000+0 -37742-3 0  9996
2 66527  42.9996 110.2985 0001243 267.3668 154.9710 15.74967034  3478
STARLINK-35928          
1 66528U 25265N   25337.25003472  .00054645  00000+0  35638-3 0  9991
2 66528  42.9997 110.2935 0001607 269.3553 154.7811 15.75049277  3475
STARLINK-35933          
1 66529U 25265P   25337.25003472  .00099407  00000+0  64550-3 0  9992
2 66529  42.9997 110.2879 0001884 275.4707 150.7998 15.74936659  3479
STARLINK-35961          
1 66530U 25265Q   25337.25003472 -.00004220  00000+0 -24370-4 0  9992
2 66530  42.9997 110.2836 0001716 265.5083 162.5648 15.75045803  3471
STARLINK-35960          
1 66531U 25265R   25337.25003472  .00032857  00000+0  21622-3 0  9994
2 66531  42.9998 110.2785 0001694 257.1118 172.8766 15.75033302  3473
STARLINK-35914          
1 66532U 25265S   25337.25003472  .00018823  00000+0  12536-3 0  9996
2 66532  42.9995 110.2740 0001810 259.4482 172.4575 15.75041077  3473
STARLINK-35707          
1 66533U 25265T   25337.25003472 -.00017448  00000+0 -11065-3 0  9997
2 66533  42.9996 110.2693 0001673 270.7205 163.1002 15.75051017  3475
STARLINK-35976          
1 66534U 25265U   25337.25003472  .00020862  00000+0  13857-3 0  9991
2 66534  42.9999 110.2648 0001867 248.2600 187.4825 15.75041277  3472
